[{"OBJECT_NAME":"STARLINK-4593","OBJECT_ID":"2022-104AX","EPOCH":"2026-03-09T17:56:11.141952","MEAN_MOTION":15.08839163,"ECCENTRICITY":0.00011977,"INCLINATION":53.2173,"RA_OF_ASC_NODE":223.8871,"ARG_OF_PERICENTER":90.7205,"MEAN_ANOMALY":269.3924,"EPHEMERIS_TYPE":0,"CLASSIFICATION_TYPE":"U","NORAD_CAT_ID":53633,"ELEMENT_SET_NO":999,"REV_AT_EPOCH":19590,"BSTAR":4.0774444e-5,"MEAN_MOTION_DOT":3.61e-6,"MEAN_MOTION_DDOT":0},{"OBJECT_NAME":"PSLV DEB","OBJECT_ID":"2001-049PR","EPOCH":"2026-03-09T15:06:31.993344","MEAN_MOTION":15.1271322,"ECCENTRICITY":0.0041907,"INCLINATION":98.4927,"RA_OF_ASC_NODE":1.3381,"ARG_OF_PERICENTER":112.6989,"MEAN_ANOMALY":247.8677,"EPHEMERIS_TYPE":0,"CLASSIFICATION_TYPE":"U","NORAD_CAT_ID":34221,"ELEMENT_SET_NO":999,"REV_AT_EPOCH":29932,"BSTAR":0.00024868,"MEAN_MOTION_DOT":4.366e-5,"MEAN_MOTION_DDOT":0}]
